IRIDIUM 144             
1 43249U 18030A   25201.89990034  .00000096  00000+0  27271-4 0  9993
2 43249  86.3933  68.9048 0002090  87.0117 273.1318 14.34217631382679
IRIDIUM 149             
1 43250U 18030B   25201.90624315  .00000030  00000+0  37989-5 0  9999
2 43250  86.3931  68.8728 0002048  88.1021 272.0409 14.34217530382679
IRIDIUM 157             
1 43251U 18030C   25201.92527138  .00000047  00000+0  97986-5 0  9998
2 43251  86.3933  68.9108 0002377  87.9757 272.1711 14.34217736382656
IRIDIUM 140             
1 43252U 18030D   25201.87452984  .00000006  00000+0 -50182-5 0  9992
2 43252  86.3929  68.9453 0001846  84.1079 276.0327 14.34217470382708
IRIDIUM 145             
1 43253U 18030E   25201.86184434  .00000035  00000+0  55911-5 0  9990
2 43253  86.3933  68.9237 0001777  92.2891 267.8508 14.34217424382639
IRIDIUM 146             
1 43254U 18030F   25201.91258489  .00000024  00000+0  13472-5 0  9993
2 43254  86.3931  68.9157 0001809  91.1812 268.9591 14.34217634382655
IRIDIUM 148             
1 43255U 18030G   25201.88087432  .00000183  00000+0  58457-4 0  9995
2 43255  86.3936  68.9670 0002163  90.8035 269.3408 14.34219318382684
IRIDIUM 142             
1 43256U 18030H   25201.91892755  .00000026  00000+0  22770-5 0  9998
2 43256  86.3931  68.8522 0001766  96.1990 263.9407 14.34217543382656
